TLE2=2 23087  71.0535 148.8069 0008870 352.3850   7.7136 14.14377790646584
TLE2=2 25400  98.8276  34.3210 0009575 345.5070  14.5834 14.26052392440722
TLE2=2 22830  98.4893 149.8377 0009702 243.6963 116.3225 14.32867113695891
TLE2=2 25544  51.6343  10.6992 0006186 218.8034 141.2511 15.48444672558264
TLE2=2 25732  98.6601 125.0670 0036186 310.3577 102.7585 14.18267665389927
TLE2=2 23561  98.4475 152.4301 0007973 104.2305 315.2584 14.39780923621039
TLE2=2 25861  97.9940 140.2014 0014048 212.6268 147.4078 14.81747868438705
TLE2=2 25407  71.0118 155.0841 0007614 348.0463  12.0478 14.16195529428883
TLE2=2 24883  98.8588 245.8172 0002695  45.4786 314.6618 14.35503381510264
TLE2=2 23343  97.7092 111.4183 0006776 168.4395 258.2247 14.79421564689086
TLE2=2 23405  70.9846 326.4602 0002376 199.1935 160.9099 14.15567424617982
TLE2=2 25876  51.7600 251.3689 0502612  25.2876 337.1773 14.11867020364799
TLE2=2 23088  70.9999  44.5544 0005475 273.4520  86.5976 14.15010928647869
TLE2=2 22803  70.9930 344.7856 0017802 198.4404 161.6076 14.17234829681306
TLE2=2 25860  97.9416 140.8530 0000937  79.7759 280.3559 14.80354485436224
TLE2=2 24298  70.7595 148.7493 0014029 128.2533 231.9851 14.12419068523416
TLE2=2 23705  71.0220 153.8192 0010187 102.5236 257.7028 14.15500856569631
