[{"OBJECT_NAME":"SL-16 R/B","OBJECT_ID":"1993-059B","EPOCH":"2026-03-22T04:21:23.585472","MEAN_MOTION":14.17234829,"ECCENTRICITY":0.00178024,"INCLINATION":70.993,"RA_OF_ASC_NODE":344.7856,"ARG_OF_PERICENTER":198.4404,"MEAN_ANOMALY":161.6076,"EPHEMERIS_TYPE":0,"CLASSIFICATION_TYPE":"U","NORAD_CAT_ID":22803,"ELEMENT_SET_NO":999,"REV_AT_EPOCH":68130,"BSTAR":0.00010192024,"MEAN_MOTION_DOT":1.58e-6,"MEAN_MOTION_DDOT":0},{"OBJECT_NAME":"ARIANE 40 R/B","OBJECT_ID":"1993-061H","EPOCH":"2026-03-22T04:45:25.301664","MEAN_MOTION":14.32867113,"ECCENTRICITY":0.0009702,"INCLINATION":98.4893,"RA_OF_ASC_NODE":149.8377,"ARG_OF_PERICENTER":243.6963,"MEAN_ANOMALY":116.3225,"EPHEMERIS_TYPE":0,"CLASSIFICATION_TYPE":"U","NORAD_CAT_ID":22830,"ELEMENT_SET_NO":999,"REV_AT_EPOCH":69589,"BSTAR":8.6911924e-5,"MEAN_MOTION_DOT":1.94e-6,"MEAN_MOTION_DDOT":0},{"OBJECT_NAME":"COSMOS 2278","OBJECT_ID":"1994-023A","EPOCH":"2026-03-22T06:10:24.822336","MEAN_MOTION":14.1437779,"ECCENTRICITY":0.00088709,"INCLINATION":71.0535,"RA_OF_ASC_NODE":148.8069,"ARG_OF_PERICENTER":352.385,"MEAN_ANOMALY":7.7136,"EPHEMERIS_TYPE":0,"CLASSIFICATION_TYPE":"U","NORAD_CAT_ID":23087,"ELEMENT_SET_NO":999,"REV_AT_EPOCH":64658,"BSTAR":-9.5168342e-5,"MEAN_MOTION_DOT":-2.29e-6,"MEAN_MOTION_DDOT":0},{"OBJECT_NAME":"SL-16 R/B","OBJECT_ID":"1994-023B","EPOCH":"2026-03-22T05:27:25.824672","MEAN_MOTION":14.15010928,"ECCENTRICITY":0.00054755,"INCLINATION":70.9999,"RA_OF_ASC_NODE":44.5544,"ARG_OF_PERICENTER":273.452,"MEAN_ANOMALY":86.5976,"EPHEMERIS_TYPE":0,"CLASSIFICATION_TYPE":"U","NORAD_CAT_ID":23088,"ELEMENT_SET_NO":999,"REV_AT_EPOCH":64786,"BSTAR":0.00010887975,"MEAN_MOTION_DOT":1.63e-6,"MEAN_MOTION_DDOT":0},{"OBJECT_NAME":"SL-16 R/B","OBJECT_ID":"1994-074B","EPOCH":"2026-03-22T02:29:57.329664","MEAN_MOTION":14.79421564,"ECCENTRICITY":0.00067761,"INCLINATION":97.7092,"RA_OF_ASC_NODE":111.4183,"ARG_OF_PERICENTER":168.4395,"MEAN_ANOMALY":258.2247,"EPHEMERIS_TYPE":0,"CLASSIFICATION_TYPE":"U","NORAD_CAT_ID":23343,"ELEMENT_SET_NO":999,"REV_AT_EPOCH":68908,"BSTAR":6.8089748e-5,"MEAN_MOTION_DOT":4.59e-6,"MEAN_MOTION_DDOT":0},{"OBJECT_NAME":"SL-16 R/B","OBJECT_ID":"1994-077B","EPOCH":"2026-03-22T01:30:24.303456","MEAN_MOTION":14.15567424,"ECCENTRICITY":0.00023764,"INCLINATION":70.9846,"RA_OF_ASC_NODE":326.4602,"ARG_OF_PERICENTER":199.1935,"MEAN_ANOMALY":160.9099,"EPHEMERIS_TYPE":0,"CLASSIFICATION_TYPE":"U","NORAD_CAT_ID":23405,"ELEMENT_SET_NO":999,"REV_AT_EPOCH":61798,"BSTAR":0.00015173633,"MEAN_MOTION_DOT":2.49e-6,"MEAN_MOTION_DDOT":0},{"OBJECT_NAME":"ARIANE 40+ R/B","OBJECT_ID":"1995-021B","EPOCH":"2026-03-22T02:48:44.484192","MEAN_MOTION":14.39780923,"ECCENTRICITY":0.00079738,"INCLINATION":98.4475,"RA_OF_ASC_NODE":152.4301,"ARG_OF_PERICENTER":104.2305,"MEAN_ANOMALY":315.2584,"EPHEMERIS_TYPE":0,"CLASSIFICATION_TYPE":"U","NORAD_CAT_ID":23561,"ELEMENT_SET_NO":999,"REV_AT_EPOCH":62103,"BSTAR":0.00010357729,"MEAN_MOTION_DOT":2.81e-6,"MEAN_MOTION_DDOT":0},{"OBJECT_NAME":"SL-16 R/B","OBJECT_ID":"1995-058B","EPOCH":"2026-03-22T06:46:36.024960","MEAN_MOTION":14.15500856,"ECCENTRICITY":0.00101872,"INCLINATION":71.022,"RA_OF_ASC_NODE":153.8192,"ARG_OF_PERICENTER":102.5236,"MEAN_ANOMALY":257.7028,"EPHEMERIS_TYPE":0,"CLASSIFICATION_TYPE":"U","NORAD_CAT_ID":23705,"ELEMENT_SET_NO":999,"REV_AT_EPOCH":56963,"BSTAR":-1.308129e-5,"MEAN_MOTION_DOT":-7.3e-7,"MEAN_MOTION_DDOT":0},{"OBJECT_NAME":"SL-16 R/B","OBJECT_ID":"1996-051B","EPOCH":"2026-03-22T04:56:03.444288","MEAN_MOTION":14.12419068,"ECCENTRICITY":0.00140293,"INCLINATION":70.7595,"RA_OF_ASC_NODE":148.7493,"ARG_OF_PERICENTER":128.2533,"MEAN_ANOMALY":231.9851,"EPHEMERIS_TYPE":0,"CLASSIFICATION_TYPE":"U","NORAD_CAT_ID":24298,"ELEMENT_SET_NO":999,"REV_AT_EPOCH":52341,"BSTAR":8.1071271e-5,"MEAN_MOTION_DOT":1.01e-6,"MEAN_MOTION_DDOT":0},{"OBJECT_NAME":"ORBVIEW 2 (SEASTAR)","OBJECT_ID":"1997-037A","EPOCH":"2026-03-22T04:09:35.375040","MEAN_MOTION":14.35503381,"ECCENTRICITY":0.00026952,"INCLINATION":98.8588,"RA_OF_ASC_NODE":245.8172,"ARG_OF_PERICENTER":45.4786,"MEAN_ANOMALY":314.6618,"EPHEMERIS_TYPE":0,"CLASSIFICATION_TYPE":"U","NORAD_CAT_ID":24883,"ELEMENT_SET_NO":999,"REV_AT_EPOCH":51026,"BSTAR":0.00011134356,"MEAN_MOTION_DOT":2.74e-6,"MEAN_MOTION_DDOT":0},{"OBJECT_NAME":"SL-16 R/B","OBJECT_ID":"1998-043G","EPOCH":"2026-03-21T20:52:34.341888","MEAN_MOTION":14.26052392,"ECCENTRICITY":0.00095751,"INCLINATION":98.8276,"RA_OF_ASC_NODE":34.321,"ARG_OF_PERICENTER":345.507,"MEAN_ANOMALY":14.5834,"EPHEMERIS_TYPE":0,"CLASSIFICATION_TYPE":"U","NORAD_CAT_ID":25400,"ELEMENT_SET_NO":999,"REV_AT_EPOCH":44072,"BSTAR":4.4625309e-5,"MEAN_MOTION_DOT":6.1e-7,"MEAN_MOTION_DDOT":0},{"OBJECT_NAME":"SL-16 R/B","OBJECT_ID":"1998-045B","EPOCH":"2026-03-22T06:53:25.935072","MEAN_MOTION":14.16195529,"ECCENTRICITY":0.00076147,"INCLINATION":71.0118,"RA_OF_ASC_NODE":155.0841,"ARG_OF_PERICENTER":348.0463,"MEAN_ANOMALY":12.0478,"EPHEMERIS_TYPE":0,"CLASSIFICATION_TYPE":"U","NORAD_CAT_ID":25407,"ELEMENT_SET_NO":999,"REV_AT_EPOCH":42888,"BSTAR":-4.869765e-6,"MEAN_MOTION_DOT":-5.7e-7,"MEAN_MOTION_DDOT":0},{"OBJECT_NAME":"ISS (ZARYA)","OBJECT_ID":"1998-067A","EPOCH":"2026-03-22T03:54:40.385952","MEAN_MOTION":15.48444672,"ECCENTRICITY":0.00061864,"INCLINATION":51.6343,"RA_OF_ASC_NODE":10.6992,"ARG_OF_PERICENTER":218.8034,"MEAN_ANOMALY":141.2511,"EPHEMERIS_TYPE":0,"CLASSIFICATION_TYPE":"U","NORAD_CAT_ID":25544,"ELEMENT_SET_NO":999,"REV_AT_EPOCH":55826,"BSTAR":0.00028686415,"MEAN_MOTION_DOT":0.00015089,"MEAN_MOTION_DDOT":0},{"OBJECT_NAME":"CZ-4B R/B","OBJECT_ID":"1999-025C","EPOCH":"2026-03-22T01:55:45.173280","MEAN_MOTION":14.18267665,"ECCENTRICITY":0.00361868,"INCLINATION":98.6601,"RA_OF_ASC_NODE":125.067,"ARG_OF_PERICENTER":310.3577,"MEAN_ANOMALY":102.7585,"EPHEMERIS_TYPE":0,"CLASSIFICATION_TYPE":"U","NORAD_CAT_ID":25732,"ELEMENT_SET_NO":999,"REV_AT_EPOCH":38992,"BSTAR":4.0724725e-5,"MEAN_MOTION_DOT":4.1e-7,"MEAN_MOTION_DDOT":0},{"OBJECT_NAME":"OKEAN-O","OBJECT_ID":"1999-039A","EPOCH":"2026-03-22T02:08:15.730080","MEAN_MOTION":14.80354485,"ECCENTRICITY":9.379e-5,"INCLINATION":97.9416,"RA_OF_ASC_NODE":140.853,"ARG_OF_PERICENTER":79.7759,"MEAN_ANOMALY":280.3559,"EPHEMERIS_TYPE":0,"CLASSIFICATION_TYPE":"U","NORAD_CAT_ID":25860,"ELEMENT_SET_NO":999,"REV_AT_EPOCH":43622,"BSTAR":9.4653847e-5,"MEAN_MOTION_DOT":6.7e-6,"MEAN_MOTION_DDOT":0},{"OBJECT_NAME":"SL-16 R/B","OBJECT_ID":"1999-039B","EPOCH":"2026-03-22T02:59:43.105344","MEAN_MOTION":14.81747868,"ECCENTRICITY":0.00140489,"INCLINATION":97.994,"RA_OF_ASC_NODE":140.2014,"ARG_OF_PERICENTER":212.6268,"MEAN_ANOMALY":147.4078,"EPHEMERIS_TYPE":0,"CLASSIFICATION_TYPE":"U","NORAD_CAT_ID":25861,"ELEMENT_SET_NO":999,"REV_AT_EPOCH":43870,"BSTAR":7.9962784e-5,"MEAN_MOTION_DOT":5.77e-6,"MEAN_MOTION_DDOT":0},{"OBJECT_NAME":"DELTA 2 R/B","OBJECT_ID":"1999-041E","EPOCH":"2026-03-22T04:25:20.074368","MEAN_MOTION":14.1186702,"ECCENTRICITY":0.05026124,"INCLINATION":51.76,"RA_OF_ASC_NODE":251.3689,"ARG_OF_PERICENTER":25.2876,"MEAN_ANOMALY":337.1773,"EPHEMERIS_TYPE":0,"CLASSIFICATION_TYPE":"U","NORAD_CAT_ID":25876,"ELEMENT_SET_NO":999,"REV_AT_EPOCH":36479,"BSTAR":0.00010364374,"MEAN_MOTION_DOT":3.97e-6,"MEAN_MOTION_DDOT":0}]
